DMSP 5D-3 F16 (USA 172) 
1 28054U 03048A   26116.95145166  .00000079  00000+0  65196-4 0  9993
2 28054  98.9930 140.4321 0005980 296.2460 125.8415 14.14477182162245
METEOSAT-9 (MSG-2)      
1 28912U 05049B   26116.93089426  .00000118  00000+0  00000+0 0  9995
2 28912   9.2489  54.6630 0000511 343.3476 197.6940  1.00275091  6486
DMSP 5D-3 F17 (USA 191) 
1 29522U 06050A   26116.97448705  .00000114  00000+0  81289-4 0  9998
2 29522  98.7395 124.5903 0009691 195.8168 164.2704 14.14982847  5186
FENGYUN 3A              
1 32958U 08026A   26116.80556056  .00000083  00000+0  60171-4 0  9993
2 32958  98.6856  58.6087 0007587 277.8297  82.2018 14.19559822928112
GOES 14                 
1 35491U 09033A   26116.88933730 -.00000059  00000+0  00000+0 0  9997
2 35491   1.5596  83.6273 0001750 314.0551 307.8984  1.00116667  6071
DMSP 5D-3 F18 (USA 210) 
1 35951U 09057A   26116.94221204  .00000267  00000+0  16127-3 0  9998
2 35951  98.9017  97.8314 0011885  41.2435 318.9633 14.14866445852341
EWS-G2 (GOES 15)        
1 36411U 10008A   26116.96145524  .00000012  00000+0  00000+0 0  9997
2 36411   1.1428  83.7723 0003983  23.7429 156.8227  1.00272523 59123
COMS 1                  
1 36744U 10032A   26116.87586071 -.00000352  00000+0  00000+0 0  9997
2 36744   4.6751  76.0396 0001051 313.0776 269.2048  1.00272387 50572
FENGYUN 3B              
1 37214U 10059A   26116.89953729  .00000000  00000+0  23457-4 0  9994
2 37214  98.9674 162.6853 0021627 334.8965 129.1604 14.14829455800171
SUOMI NPP               
1 37849U 11061A   26116.95599413  .00000077  00000+0  57407-4 0  9991
2 37849  98.7926  58.1907 0002762 102.0003 258.1482 14.19506039751176
METEOSAT-10 (MSG-3)     
1 38552U 12035B   26116.63663973 -.00000015  00000+0  00000+0 0  9998
2 38552   4.5523  61.2377 0002094 312.6097  70.1584  1.00267982 50345
METOP-B                 
1 38771U 12049A   26116.94457624  .00000110  00000+0  70169-4 0  9997
2 38771  98.6548 169.4553 0003412 123.0957 237.0548 14.21433280705984
INSAT-3D                
1 39216U 13038B   26116.94744767 -.00000348  00000+0  00000+0 0  9994
2 39216   1.7955  83.1536 0001492 282.7930 319.6017  1.00271904 46565
FENGYUN 3C              
1 39260U 13052A   26116.94657139  .00000099  00000+0  71223-4 0  9997
2 39260  98.4957  93.1846 0014858 166.3676 193.7903 14.15742727651314
METEOR-M 2              
1 40069U 14037A   26116.97174856  .00000176  00000+0  99604-4 0  9992
2 40069  98.5086  94.5341 0005617 173.9424 186.1823 14.21447077612041
HIMAWARI-8              
1 40267U 14060A   26116.94970102  .00000000  00000+0  00000+0 0  9996
2 40267   0.0244 100.9081 0000915 298.9348 297.6658  1.00268452 42241
FENGYUN 2G              
1 40367U 14090A   26116.90893219 -.00000310  00000+0  00000+0 0  9994
2 40367   5.5118  73.4201 0002908 145.2152  63.2783  1.00272409 41489
