[{"OBJECT_NAME":"DMSP 5D-3 F16 (USA 172)","OBJECT_ID":"2003-048A","EPOCH":"2026-04-26T22:50:05.423424","MEAN_MOTION":14.14477182,"ECCENTRICITY":0.00059806,"INCLINATION":98.993,"RA_OF_ASC_NODE":140.4321,"ARG_OF_PERICENTER":296.246,"MEAN_ANOMALY":125.8415,"EPHEMERIS_TYPE":0,"CLASSIFICATION_TYPE":"U","NORAD_CAT_ID":28054,"ELEMENT_SET_NO":999,"REV_AT_EPOCH":16224,"BSTAR":6.5195842e-5,"MEAN_MOTION_DOT":7.9e-7,"MEAN_MOTION_DDOT":0},{"OBJECT_NAME":"METEOSAT-9 (MSG-2)","OBJECT_ID":"2005-049B","EPOCH":"2026-04-26T22:20:29.264064","MEAN_MOTION":1.00275091,"ECCENTRICITY":5.119e-5,"INCLINATION":9.2489,"RA_OF_ASC_NODE":54.663,"ARG_OF_PERICENTER":343.3476,"MEAN_ANOMALY":197.694,"EPHEMERIS_TYPE":0,"CLASSIFICATION_TYPE":"U","NORAD_CAT_ID":28912,"ELEMENT_SET_NO":999,"REV_AT_EPOCH":648,"BSTAR":0,"MEAN_MOTION_DOT":1.18e-6,"MEAN_MOTION_DDOT":0},{"OBJECT_NAME":"DMSP 5D-3 F17 (USA 191)","OBJECT_ID":"2006-050A","EPOCH":"2026-04-26T23:23:15.681120","MEAN_MOTION":14.14982847,"ECCENTRICITY":0.00096915,"INCLINATION":98.7395,"RA_OF_ASC_NODE":124.5903,"ARG_OF_PERICENTER":195.8168,"MEAN_ANOMALY":164.2704,"EPHEMERIS_TYPE":0,"CLASSIFICATION_TYPE":"U","NORAD_CAT_ID":29522,"ELEMENT_SET_NO":999,"REV_AT_EPOCH":518,"BSTAR":8.1289062e-5,"MEAN_MOTION_DOT":1.14e-6,"MEAN_MOTION_DDOT":0},{"OBJECT_NAME":"FENGYUN 3A","OBJECT_ID":"2008-026A","EPOCH":"2026-04-26T19:20:00.432384","MEAN_MOTION":14.19559822,"ECCENTRICITY":0.00075876,"INCLINATION":98.6856,"RA_OF_ASC_NODE":58.6087,"ARG_OF_PERICENTER":277.8297,"MEAN_ANOMALY":82.2018,"EPHEMERIS_TYPE":0,"CLASSIFICATION_TYPE":"U","NORAD_CAT_ID":32958,"ELEMENT_SET_NO":999,"REV_AT_EPOCH":92811,"BSTAR":6.0171205e-5,"MEAN_MOTION_DOT":8.3e-7,"MEAN_MOTION_DDOT":0},{"OBJECT_NAME":"GOES 14","OBJECT_ID":"2009-033A","EPOCH":"2026-04-26T21:20:38.742720","MEAN_MOTION":1.00116667,"ECCENTRICITY":0.00017505,"INCLINATION":1.5596,"RA_OF_ASC_NODE":83.6273,"ARG_OF_PERICENTER":314.0551,"MEAN_ANOMALY":307.8984,"EPHEMERIS_TYPE":0,"CLASSIFICATION_TYPE":"U","NORAD_CAT_ID":35491,"ELEMENT_SET_NO":999,"REV_AT_EPOCH":607,"BSTAR":0,"MEAN_MOTION_DOT":-5.9e-7,"MEAN_MOTION_DDOT":0},{"OBJECT_NAME":"DMSP 5D-3 F18 (USA 210)","OBJECT_ID":"2009-057A","EPOCH":"2026-04-26T22:36:47.120256","MEAN_MOTION":14.14866445,"ECCENTRICITY":0.00118852,"INCLINATION":98.9017,"RA_OF_ASC_NODE":97.8314,"ARG_OF_PERICENTER":41.2435,"MEAN_ANOMALY":318.9633,"EPHEMERIS_TYPE":0,"CLASSIFICATION_TYPE":"U","NORAD_CAT_ID":35951,"ELEMENT_SET_NO":999,"REV_AT_EPOCH":85234,"BSTAR":0.00016126716,"MEAN_MOTION_DOT":2.67e-6,"MEAN_MOTION_DDOT":0},{"OBJECT_NAME":"EWS-G2 (GOES 15)","OBJECT_ID":"2010-008A","EPOCH":"2026-04-26T23:04:29.732736","MEAN_MOTION":1.00272523,"ECCENTRICITY":0.00039837,"INCLINATION":1.1428,"RA_OF_ASC_NODE":83.7723,"ARG_OF_PERICENTER":23.7429,"MEAN_ANOMALY":156.8227,"EPHEMERIS_TYPE":0,"CLASSIFICATION_TYPE":"U","NORAD_CAT_ID":36411,"ELEMENT_SET_NO":999,"REV_AT_EPOCH":5912,"BSTAR":0,"MEAN_MOTION_DOT":1.2e-7,"MEAN_MOTION_DDOT":0},{"OBJECT_NAME":"COMS 1","OBJECT_ID":"2010-032A","EPOCH":"2026-04-26T21:01:14.365344","MEAN_MOTION":1.00272387,"ECCENTRICITY":0.00010512,"INCLINATION":4.6751,"RA_OF_ASC_NODE":76.0396,"ARG_OF_PERICENTER":313.0776,"MEAN_ANOMALY":269.2048,"EPHEMERIS_TYPE":0,"CLASSIFICATION_TYPE":"U","NORAD_CAT_ID":36744,"ELEMENT_SET_NO":999,"REV_AT_EPOCH":5057,"BSTAR":0,"MEAN_MOTION_DOT":-3.52e-6,"MEAN_MOTION_DDOT":0},{"OBJECT_NAME":"FENGYUN 3B","OBJECT_ID":"2010-059A","EPOCH":"2026-04-26T21:35:20.021856","MEAN_MOTION":14.14829455,"ECCENTRICITY":0.00216276,"INCLINATION":98.9674,"RA_OF_ASC_NODE":162.6853,"ARG_OF_PERICENTER":334.8965,"MEAN_ANOMALY":129.1604,"EPHEMERIS_TYPE":0,"CLASSIFICATION_TYPE":"U","NORAD_CAT_ID":37214,"ELEMENT_SET_NO":999,"REV_AT_EPOCH":80017,"BSTAR":2.3457005e-5,"MEAN_MOTION_DOT":0,"MEAN_MOTION_DDOT":0},{"OBJECT_NAME":"SUOMI NPP","OBJECT_ID":"2011-061A","EPOCH":"2026-04-26T22:56:37.892832","MEAN_MOTION":14.19506039,"ECCENTRICITY":0.00027627,"INCLINATION":98.7926,"RA_OF_ASC_NODE":58.1907,"ARG_OF_PERICENTER":102.0003,"MEAN_ANOMALY":258.1482,"EPHEMERIS_TYPE":0,"CLASSIFICATION_TYPE":"U","NORAD_CAT_ID":37849,"ELEMENT_SET_NO":999,"REV_AT_EPOCH":75117,"BSTAR":5.7407096e-5,"MEAN_MOTION_DOT":7.7e-7,"MEAN_MOTION_DDOT":0},{"OBJECT_NAME":"METEOSAT-10 (MSG-3)","OBJECT_ID":"2012-035B","EPOCH":"2026-04-26T15:16:45.672672","MEAN_MOTION":1.00267982,"ECCENTRICITY":0.00020945,"INCLINATION":4.5523,"RA_OF_ASC_NODE":61.2377,"ARG_OF_PERICENTER":312.6097,"MEAN_ANOMALY":70.1584,"EPHEMERIS_TYPE":0,"CLASSIFICATION_TYPE":"U","NORAD_CAT_ID":38552,"ELEMENT_SET_NO":999,"REV_AT_EPOCH":5034,"BSTAR":0,"MEAN_MOTION_DOT":-1.5e-7,"MEAN_MOTION_DDOT":0},{"OBJECT_NAME":"METOP-B","OBJECT_ID":"2012-049A","EPOCH":"2026-04-26T22:40:11.387136","MEAN_MOTION":14.2143328,"ECCENTRICITY":0.00034125,"INCLINATION":98.6548,"RA_OF_ASC_NODE":169.4553,"ARG_OF_PERICENTER":123.0957,"MEAN_ANOMALY":237.0548,"EPHEMERIS_TYPE":0,"CLASSIFICATION_TYPE":"U","NORAD_CAT_ID":38771,"ELEMENT_SET_NO":999,"REV_AT_EPOCH":70598,"BSTAR":7.0169116e-5,"MEAN_MOTION_DOT":1.1e-6,"MEAN_MOTION_DDOT":0},{"OBJECT_NAME":"INSAT-3D","OBJECT_ID":"2013-038B","EPOCH":"2026-04-26T22:44:19.478688","MEAN_MOTION":1.00271904,"ECCENTRICITY":0.00014922,"INCLINATION":1.7955,"RA_OF_ASC_NODE":83.1536,"ARG_OF_PERICENTER":282.793,"MEAN_ANOMALY":319.6017,"EPHEMERIS_TYPE":0,"CLASSIFICATION_TYPE":"U","NORAD_CAT_ID":39216,"ELEMENT_SET_NO":999,"REV_AT_EPOCH":4656,"BSTAR":0,"MEAN_MOTION_DOT":-3.48e-6,"MEAN_MOTION_DDOT":0},{"OBJECT_NAME":"FENGYUN 3C","OBJECT_ID":"2013-052A","EPOCH":"2026-04-26T22:43:03.768096","MEAN_MOTION":14.15742727,"ECCENTRICITY":0.00148581,"INCLINATION":98.4957,"RA_OF_ASC_NODE":93.1846,"ARG_OF_PERICENTER":166.3676,"MEAN_ANOMALY":193.7903,"EPHEMERIS_TYPE":0,"CLASSIFICATION_TYPE":"U","NORAD_CAT_ID":39260,"ELEMENT_SET_NO":999,"REV_AT_EPOCH":65131,"BSTAR":7.1223227e-5,"MEAN_MOTION_DOT":9.9e-7,"MEAN_MOTION_DDOT":0},{"OBJECT_NAME":"METEOR-M 2","OBJECT_ID":"2014-037A","EPOCH":"2026-04-26T23:19:19.075584","MEAN_MOTION":14.21447077,"ECCENTRICITY":0.00056175,"INCLINATION":98.5086,"RA_OF_ASC_NODE":94.5341,"ARG_OF_PERICENTER":173.9424,"MEAN_ANOMALY":186.1823,"EPHEMERIS_TYPE":0,"CLASSIFICATION_TYPE":"U","NORAD_CAT_ID":40069,"ELEMENT_SET_NO":999,"REV_AT_EPOCH":61204,"BSTAR":9.9604445e-5,"MEAN_MOTION_DOT":1.76e-6,"MEAN_MOTION_DDOT":0},{"OBJECT_NAME":"HIMAWARI-8","OBJECT_ID":"2014-060A","EPOCH":"2026-04-26T22:47:34.168128","MEAN_MOTION":1.00268452,"ECCENTRICITY":9.157e-5,"INCLINATION":0.0244,"RA_OF_ASC_NODE":100.9081,"ARG_OF_PERICENTER":298.9348,"MEAN_ANOMALY":297.6658,"EPHEMERIS_TYPE":0,"CLASSIFICATION_TYPE":"U","NORAD_CAT_ID":40267,"ELEMENT_SET_NO":999,"REV_AT_EPOCH":4224,"BSTAR":0,"MEAN_MOTION_DOT":0,"MEAN_MOTION_DDOT":0},{"OBJECT_NAME":"FENGYUN 2G","OBJECT_ID":"2014-090A","EPOCH":"2026-04-26T21:48:51.741216","MEAN_MOTION":1.00272409,"ECCENTRICITY":0.00029081,"INCLINATION":5.5118,"RA_OF_ASC_NODE":73.4201,"ARG_OF_PERICENTER":145.2152,"MEAN_ANOMALY":63.2783,"EPHEMERIS_TYPE":0,"CLASSIFICATION_TYPE":"U","NORAD_CAT_ID":40367,"ELEMENT_SET_NO":999,"REV_AT_EPOCH":4148,"BSTAR":0,"MEAN_MOTION_DOT":-3.1e-6,"MEAN_MOTION_DDOT":0}]
